[{"OBJECT_NAME":"KUIPER-00046","OBJECT_ID":"2025-134G","EPOCH":"2026-03-09T16:29:16.822464","MEAN_MOTION":14.79921021,"ECCENTRICITY":7.337e-5,"INCLINATION":51.8972,"RA_OF_ASC_NODE":243.0618,"ARG_OF_PERICENTER":109.9358,"MEAN_ANOMALY":250.1684,"EPHEMERIS_TYPE":0,"CLASSIFICATION_TYPE":"U","NORAD_CAT_ID":64506,"ELEMENT_SET_NO":999,"REV_AT_EPOCH":3993,"BSTAR":0.00014933614,"MEAN_MOTION_DOT":9.17e-6,"MEAN_MOTION_DDOT":0},{"OBJECT_NAME":"UNKNOWN","OBJECT_ID":"","EPOCH":"2026-03-09T09:54:57.914784","MEAN_MOTION":14.59294222,"ECCENTRICITY":0.0106584,"INCLINATION":65.2027,"RA_OF_ASC_NODE":75.7912,"ARG_OF_PERICENTER":14.2221,"MEAN_ANOMALY":346.1838,"EPHEMERIS_TYPE":0,"CLASSIFICATION_TYPE":"U","NORAD_CAT_ID":87164,"ELEMENT_SET_NO":999,"REV_AT_EPOCH":64841,"BSTAR":0.0011471,"MEAN_MOTION_DOT":5.763e-5,"MEAN_MOTION_DDOT":0}]
